[{"OBJECT_NAME":"KUIPER-00133","OBJECT_ID":"2025-217C","EPOCH":"2026-03-09T08:50:36.743712","MEAN_MOTION":14.79933056,"ECCENTRICITY":0.00022054,"INCLINATION":51.9046,"RA_OF_ASC_NODE":54.54,"ARG_OF_PERICENTER":33.2283,"MEAN_ANOMALY":326.8818,"EPHEMERIS_TYPE":0,"CLASSIFICATION_TYPE":"U","NORAD_CAT_ID":65764,"ELEMENT_SET_NO":999,"REV_AT_EPOCH":2469,"BSTAR":0.0001462935,"MEAN_MOTION_DOT":8.94e-6,"MEAN_MOTION_DDOT":0},{"OBJECT_NAME":"SL-14 R\/B","OBJECT_ID":"1987-038B","EPOCH":"2026-03-09T16:49:27.049728","MEAN_MOTION":14.85369371,"ECCENTRICITY":0.00196849,"INCLINATION":82.5,"RA_OF_ASC_NODE":296.7973,"ARG_OF_PERICENTER":160.3861,"MEAN_ANOMALY":199.8117,"EPHEMERIS_TYPE":0,"CLASSIFICATION_TYPE":"U","NORAD_CAT_ID":17912,"ELEMENT_SET_NO":999,"REV_AT_EPOCH":7923,"BSTAR":5.9620516e-5,"MEAN_MOTION_DOT":5.39e-6,"MEAN_MOTION_DDOT":0}]
